{"type": "FeatureCollection", "features": [ {"type": "Feature", "properties": {"norad_id": 34117, "name": "COSMOS 2251 DEB", "group": "cosmos-2251-debris", "lat": 31.352033536869204, "lon": 138.2218966704349, "alt_km": 766.0935597539719, "timestamp": "2025-12-21T03:56:51.226606+00:00", "meta": {"OBJECT_NAME": "COSMOS 2251 DEB", "OBJECT_ID": "1993-036KN", "EPOCH": "2025-12-20T08:55:52.413888", "MEAN_MOTION": 14.40039498, "ECCENTRICITY": 0.00548478, "INCLINATION": 74.0395, "RA_OF_ASC_NODE": 329.7266, "ARG_OF_PERICENTER": 43.9351, "MEAN_ANOMALY": 316.6145, "EPHEMERIS_TYPE": 0, "CLASSIFICATION_TYPE": "U", "NORAD_CAT_ID": 34117, "ELEMENT_SET_NO": 999, "REV_AT_EPOCH": 88233, "BSTAR": 0.00048420631, "MEAN_MOTION_DOT": 1.527e-05, "MEAN_MOTION_DDOT": 0}, "tle": {"line1": "1 34117U 93036KN  25354.37213442  .00001527  00000+0  48421-3 0  9998", "line2": "2 34117  74.0395 329.7266 0054847  43.9351 316.6145 14.40039498882336"}}, "geometry": {"type": "Point", "coordinates": [138.2218966704349, 31.352033536869204]}}, {"type": "Feature", "properties": {"norad_id": 34118, "name": "COSMOS 2251 DEB", "group": "cosmos-2251-debris", "lat": 52.508308979720276, "lon": -105.70806494395367, "alt_km": 537.8876166131495, "timestamp": "2025-12-21T03:56:51.226615+00:00", "meta": {"OBJECT_NAME": "COSMOS 2251 DEB", "OBJECT_ID": "1993-036KP", "EPOCH": "2025-12-20T08:56:41.369856", "MEAN_MOTION": 14.94184152, "ECCENTRICITY": 0.00601121, "INCLINATION": 73.9518, "RA_OF_ASC_NODE": 233.8545, "ARG_OF_PERICENTER": 62.1747, "MEAN_ANOMALY": 56.3304, "EPHEMERIS_TYPE": 0, "CLASSIFICATION_TYPE": "U", "NORAD_CAT_ID": 34118, "ELEMENT_SET_NO": 999, "REV_AT_EPOCH": 89290, "BSTAR": 0.00094564831, "MEAN_MOTION_DOT": 0.00010474, "MEAN_MOTION_DDOT": 0}, "tle": {"line1": "1 34118U 93036KP  25354.37270104  .00010474  00000+0  94565-3 0  9998", "line2": "2 34118  73.9518 233.8545 0060112  62.1747  56.3304 14.94184152892907"}}, "geometry": {"type": "Point", "coordinates": [-105.70806494395367, 52.508308979720276]}}, {"type": "Feature", "properties": {"norad_id": 34120, "name": "COSMOS 2251 DEB", "group": "cosmos-2251-debris", "lat": 73.22712221743974, "lon": -50.65600870509419, "alt_km": 838.3151097018626, "timestamp": "2025-12-21T03:56:51.226624+00:00", "meta": {"OBJECT_NAME": "COSMOS 2251 DEB", "OBJECT_ID": "1993-036KR", "EPOCH": "2025-12-20T15:45:16.401312", "MEAN_MOTION": 13.98692111, "ECCENTRICITY": 0.0182297, "INCLINATION": 73.9903, "RA_OF_ASC_NODE": 202.5078, "ARG_OF_PERICENTER": 28.4342, "MEAN_ANOMALY": 27.5242, "EPHEMERIS_TYPE": 0, "CLASSIFICATION_TYPE": "U", "NORAD_CAT_ID": 34120, "ELEMENT_SET_NO": 999, "REV_AT_EPOCH": 86091, "BSTAR": 0.00023534, "MEAN_MOTION_DOT": 3.66e-06, "MEAN_MOTION_DDOT": 0}, "tle": {"line1": "1 34120U 93036KR  25354.65643983  .00000366  00000+0  23534-3 0  9998", "line2": "2 34120  73.9903 202.5078 0182297  28.4342  27.5242 13.98692111860916"}}, "geometry": {"type": "Point", "coordinates": [-50.65600870509419, 73.22712221743974]}}, {"type": "Feature", "properties": {"norad_id": 34121, "name": "COSMOS 2251 DEB", "group": "cosmos-2251-debris", "lat": 70.28193938085212, "lon": -150.48775195366426, "alt_km": 1089.767226259778, "timestamp": "2025-12-21T03:56:51.226633+00:00", "meta": {"OBJECT_NAME": "COSMOS 2251 DEB", "OBJECT_ID": "1993-036KS", "EPOCH": "2025-12-20T15:55:41.799072", "MEAN_MOTION": 13.91955626, "ECCENTRICITY": 0.0240772, "INCLINATION": 73.9924, "RA_OF_ASC_NODE": 83.5912, "ARG_OF_PERICENTER": 287.378, "MEAN_ANOMALY": 185.4399, "EPHEMERIS_TYPE": 0, "CLASSIFICATION_TYPE": "U", "NORAD_CAT_ID": 34121, "ELEMENT_SET_NO": 999, "REV_AT_EPOCH": 85235, "BSTAR": 0.00086145, "MEAN_MOTION_DOT": 1.367e-05, "MEAN_MOTION_DDOT": 0}, "tle": {"line1": "1 34121U 93036KS  25354.66367823  .00001367  00000+0  86145-3 0  9995", "line2": "2 34121  73.9924  83.5912 0240772 287.3780 185.4399 13.91955626852351"}}, "geometry": {"type": "Point", "coordinates": [-150.48775195366426, 70.28193938085212]}}, {"type": "Feature", "properties": {"norad_id": 34122, "name": "COSMOS 2251 DEB", "group": "cosmos-2251-debris", "lat": 46.481158869469425, "lon": 119.97044949575384, "alt_km": 635.1881795793961, "timestamp": "2025-12-21T03:56:51.226643+00:00", "meta": {"OBJECT_NAME": "COSMOS 2251 DEB", "OBJECT_ID": "1993-036KT", "EPOCH": "2025-12-19T17:59:46.157856", "MEAN_MOTION": 14.65126194, "ECCENTRICITY": 0.0084721, "INCLINATION": 74.0362, "RA_OF_ASC_NODE": 105.1466, "ARG_OF_PERICENTER": 0.0124, "MEAN_ANOMALY": 149.8471, "EPHEMERIS_TYPE": 0, "CLASSIFICATION_TYPE": "U", "NORAD_CAT_ID": 34122, "ELEMENT_SET_NO": 999, "REV_AT_EPOCH": 88787, "BSTAR": 0.00069383656, "MEAN_MOTION_DOT": 3.9e-05, "MEAN_MOTION_DDOT": 0}, "tle": {"line1": "1 34122U 93036KT  25353.74983979  .00003900  00000+0  69384-3 0  9991", "line2": "2 34122  74.0362 105.1466 0084721   0.0124 149.8471 14.65126194887879"}}, "geometry": {"type": "Point", "coordinates": [119.97044949575384, 46.481158869469425]}}, {"type": "Feature", "properties": {"norad_id": 34127, "name": "COSMOS 2251 DEB", "group": "cosmos-2251-debris", "lat": 22.85066191454597, "lon": 35.500455132043875, "alt_km": 861.2050915865484, "timestamp": "2025-12-21T03:56:51.226652+00:00", "meta": {"OBJECT_NAME": "COSMOS 2251 DEB", "OBJECT_ID": "1993-036KY", "EPOCH": "2025-12-20T13:19:41.195424", "MEAN_MOTION": 14.31609842, "ECCENTRICITY": 0.0114883, "INCLINATION": 74.1792, "RA_OF_ASC_NODE": 29.7384, "ARG_OF_PERICENTER": 228.199, "MEAN_ANOMALY": 257.0528, "EPHEMERIS_TYPE": 0, "CLASSIFICATION_TYPE": "U", "NORAD_CAT_ID": 34127, "ELEMENT_SET_NO": 999, "REV_AT_EPOCH": 86883, "BSTAR": 0.00099922, "MEAN_MOTION_DOT": 2.836e-05, "MEAN_MOTION_DDOT": 0}, "tle": {"line1": "1 34127U 93036KY  25354.55533791  .00002836  00000+0  99922-3 0  9997", "line2": "2 34127  74.1792  29.7384 0114883 228.1990 257.0528 14.31609842868838"}}, "geometry": {"type": "Point", "coordinates": [35.500455132043875, 22.85066191454597]}}, {"type": "Feature", "properties": {"norad_id": 34128, "name": "COSMOS 2251 DEB", "group": "cosmos-2251-debris", "lat": -2.967118180856569, "lon": 100.37825731956978, "alt_km": 581.5635403996639, "timestamp": "2025-12-21T03:56:51.226661+00:00", "meta": {"OBJECT_NAME": "COSMOS 2251 DEB", "OBJECT_ID": "1993-036KZ", "EPOCH": "2025-12-20T19:16:47.573760", "MEAN_MOTION": 15.01447664, "ECCENTRICITY": 0.0026004, "INCLINATION": 73.9993, "RA_OF_ASC_NODE": 280.263, "ARG_OF_PERICENTER": 30.6621, "MEAN_ANOMALY": 0.8855, "EPHEMERIS_TYPE": 0, "CLASSIFICATION_TYPE": "U", "NORAD_CAT_ID": 34128, "ELEMENT_SET_NO": 999, "REV_AT_EPOCH": 89288, "BSTAR": 0.00095599, "MEAN_MOTION_DOT": 0.0001242, "MEAN_MOTION_DDOT": 0}, "tle": {"line1": "1 34128U 93036KZ  25354.80332840  .00012420  00000+0  95599-3 0  9994", "line2": "2 34128  73.9993 280.2630 0026004  30.6621   0.8855 15.01447664892880"}}, "geometry": {"type": "Point", "coordinates": [100.37825731956978, -2.967118180856569]}}, {"type": "Feature", "properties": {"norad_id": 34129, "name": "COSMOS 2251 DEB", "group": "cosmos-2251-debris", "lat": 44.510246372662564, "lon": -20.61574086046581, "alt_km": 614.9765754653754, "timestamp": "2025-12-21T03:56:51.226671+00:00", "meta": {"OBJECT_NAME": "COSMOS 2251 DEB", "OBJECT_ID": "1993-036LA", "EPOCH": "2025-12-20T06:35:18.877056", "MEAN_MOTION": 14.75860485, "ECCENTRICITY": 0.00332842, "INCLINATION": 74.0352, "RA_OF_ASC_NODE": 324.7802, "ARG_OF_PERICENTER": 43.9199, "MEAN_ANOMALY": 316.4612, "EPHEMERIS_TYPE": 0, "CLASSIFICATION_TYPE": "U", "NORAD_CAT_ID": 34129, "ELEMENT_SET_NO": 999, "REV_AT_EPOCH": 61409, "BSTAR": 0.00098354282, "MEAN_MOTION_DOT": 6.785e-05, "MEAN_MOTION_DDOT": 0}, "tle": {"line1": "1 34129U 93036LA  25354.27452404  .00006785  00000+0  98354-3 0  9994", "line2": "2 34129  74.0352 324.7802 0033284  43.9199 316.4612 14.75860485614094"}}, "geometry": {"type": "Point", "coordinates": [-20.61574086046581, 44.510246372662564]}}, {"type": "Feature", "properties": {"norad_id": 34136, "name": "COSMOS 2251 DEB", "group": "cosmos-2251-debris", "lat": -27.382145714215902, "lon": 17.481012121089623, "alt_km": 693.8755555795706, "timestamp": "2025-12-21T03:56:51.226680+00:00", "meta": {"OBJECT_NAME": "COSMOS 2251 DEB", "OBJECT_ID": "1993-036LH", "EPOCH": "2025-12-20T20:45:28.783872", "MEAN_MOTION": 14.80127198, "ECCENTRICITY": 0.0085228, "INCLINATION": 74.0198, "RA_OF_ASC_NODE": 26.6074, "ARG_OF_PERICENTER": 147.3711, "MEAN_ANOMALY": 28.6822, "EPHEMERIS_TYPE": 0, "CLASSIFICATION_TYPE": "U", "NORAD_CAT_ID": 34136, "ELEMENT_SET_NO": 999, "REV_AT_EPOCH": 90130, "BSTAR": 0.00022743, "MEAN_MOTION_DOT": 1.799e-05, "MEAN_MOTION_DDOT": 0}, "tle": {"line1": "1 34136U 93036LH  25354.86491648  .00001799  00000+0  22743-3 0  9999", "line2": "2 34136  74.0198  26.6074 0085228 147.3711  28.6822 14.80127198901304"}}, "geometry": {"type": "Point", "coordinates": [17.481012121089623, -27.382145714215902]}}, {"type": "Feature", "properties": {"norad_id": 34139, "name": "COSMOS 2251 DEB", "group": "cosmos-2251-debris", "lat": 41.11207978863945, "lon": 43.53170256619097, "alt_km": 721.9684482860812, "timestamp": "2025-12-21T03:56:51.226689+00:00", "meta": {"OBJECT_NAME": "COSMOS 2251 DEB", "OBJECT_ID": "1993-036LL", "EPOCH": "2025-12-20T15:56:28.747104", "MEAN_MOTION": 14.59157098, "ECCENTRICITY": 0.004253, "INCLINATION": 74.0302, "RA_OF_ASC_NODE": 238.9576, "ARG_OF_PERICENTER": 308.734, "MEAN_ANOMALY": 81.3366, "EPHEMERIS_TYPE": 0, "CLASSIFICATION_TYPE": "U", "NORAD_CAT_ID": 34139, "ELEMENT_SET_NO": 999, "REV_AT_EPOCH": 88265, "BSTAR": 0.00078687, "MEAN_MOTION_DOT": 3.725e-05, "MEAN_MOTION_DDOT": 0}, "tle": {"line1": "1 34139U 93036LL  25354.66422161  .00003725  00000+0  78687-3 0  9993", "line2": "2 34139  74.0302 238.9576 0042530 308.7340  81.3366 14.59157098882652"}}, "geometry": {"type": "Point", "coordinates": [43.53170256619097, 41.11207978863945]}}]}